[{"OBJECT_NAME":"TIANMU-1 08","OBJECT_ID":"2023-101B","EPOCH":"2026-03-07T00:03:25.475616","MEAN_MOTION":15.29204229,"ECCENTRICITY":0.00063808,"INCLINATION":97.2717,"RA_OF_ASC_NODE":118.7901,"ARG_OF_PERICENTER":134.2174,"MEAN_ANOMALY":225.9592,"EPHEMERIS_TYPE":0,"CLASSIFICATION_TYPE":"U","NORAD_CAT_ID":57400,"ELEMENT_SET_NO":999,"REV_AT_EPOCH":14602,"BSTAR":1.4774513e-5,"MEAN_MOTION_DOT":3.46e-6,"MEAN_MOTION_DDOT":0},{"OBJECT_NAME":"STARLINK-35867","OBJECT_ID":"2025-278A","EPOCH":"2026-03-09T19:34:56.492832","MEAN_MOTION":15.2759637,"ECCENTRICITY":0.0001499,"INCLINATION":43.0007,"RA_OF_ASC_NODE":114.0738,"ARG_OF_PERICENTER":279.4001,"MEAN_ANOMALY":80.6681,"EPHEMERIS_TYPE":0,"CLASSIFICATION_TYPE":"U","NORAD_CAT_ID":66791,"ELEMENT_SET_NO":999,"REV_AT_EPOCH":1522,"BSTAR":0.0012254482,"MEAN_MOTION_DOT":0.0003363,"MEAN_MOTION_DDOT":0}]
