TIANMU-1 08             
1 57400U 23101B   26066.00237819  .00000346  00000+0  14775-4 0  9993
2 57400  97.2717 118.7901 0006380 134.2174 225.9592 15.29204229146020
STARLINK-35867          
1 66791U 25278A   26068.81593163  .00033630  00000+0  12254-2 0  9991
2 66791  43.0007 114.0738 0001499 279.4001  80.6681 15.27596369 15227
